start=new Date('2021-10-10T00:00:00.000Z').valueOf();
sats=[{"MEAN_MOTION_DDOT":"0.0000517250000","MEAN_ANOMALY":"239.8965","CENTER_NAME":"EARTH","ARG_OF_PERICENTER":"120.2425","MEAN_MOTION_DOT":"0.00321374","TLE_LINE2":"2 46379  53.0302 250.1973 0003665 120.2425 239.8965 15.95032182 63587","NORAD_CAT_ID":"46379","REF_FRAME":"TEME","CLASSIFICATION_TYPE":"U","REV_AT_EPOCH":"6358","PERIAPSIS":"285.783","FILE":"3153808","LAUNCH_DATE":"2020-09-03","DECAY_DATE":null,"OBJECT_NAME":"STARLINK-1756","ECCENTRICITY":"0.00036650","MEAN_ELEMENT_THEORY":"SGP4","COUNTRY_CODE":"US","SEMIMAJOR_AXIS":"6666.362","TLE_LINE1":"1 46379U 20062BG  21282.33843672  .00321374  51725-4  81335-3 0  9997","BSTAR":"0.00081335000000","SITE":"AFETR","RCS_SIZE":"LARGE","INCLINATION":"53.0302","OBJECT_ID":"2020-062BG","GP_ID":"186728696","APOAPSIS":"290.670","MEAN_MOTION":"15.95032182","PERIOD":"90.280","TIME_SYSTEM":"UTC","EPOCH":"2021-10-09T08:07:20.932608","RA_OF_ASC_NODE":"250.1973","EPHEMERIS_TYPE":"0","OBJECT_TYPE":"PAYLOAD","ELEMENT_SET_NO":"999"},{"LAUNCH_DATE":"2020-09-03","DECAY_DATE":null,"OBJECT_NAME":"STARLINK-1758","ECCENTRICITY":"0.00010810","REV_AT_EPOCH":"6163","PERIAPSIS":"546.510","FILE":"3153808","MEAN_MOTION_DOT":"-0.00000912","REF_FRAME":"TEME","NORAD_CAT_ID":"46380","TLE_LINE2":"2 46380  53.0542  32.9102 0001081 111.8309 248.2795 15.06385294 61638","CLASSIFICATION_TYPE":"U","MEAN_MOTION_DDOT":"0.0000000000000","MEAN_ANOMALY":"248.2795","CENTER_NAME":"EARTH","ARG_OF_PERICENTER":"111.8309","RA_OF_ASC_NODE":"32.9102","EPHEMERIS_TYPE":"0","OBJECT_TYPE":"PAYLOAD","ELEMENT_SET_NO":"999","MEAN_MOTION":"15.06385294","PERIOD":"95.593","TIME_SYSTEM":"UTC","EPOCH":"2021-10-09T17:55:36.113664","RCS_SIZE":"LARGE","OBJECT_ID":"2020-062BH","INCLINATION":"53.0542","SITE":"AFETR","GP_ID":"186729443","APOAPSIS":"548.007","COUNTRY_CODE":"US","MEAN_ELEMENT_THEORY":"SGP4","BSTAR":"-0.00004237800000","TLE_LINE1":"1 46380U 20062BH  21282.74694576 -.00000912  00000-0 -42378-4 0  9996","SEMIMAJOR_AXIS":"6925.394"},{"PERIOD":"95.593","MEAN_MOTION":"15.06393574","EPOCH":"2021-10-09T15:54:11.248416","TIME_SYSTEM":"UTC","RA_OF_ASC_NODE":"8.3008","ELEMENT_SET_NO":"999","OBJECT_TYPE":"PAYLOAD","EPHEMERIS_TYPE":"0","MEAN_ELEMENT_THEORY":"SGP4","COUNTRY_CODE":"US","SEMIMAJOR_AXIS":"6925.368","BSTAR":"-0.00008140200000","TLE_LINE1":"1 46382U 20062BK  21282.66263019 -.00001493  00000-0 -81402-4 0  9999","GP_ID":"186727696","SITE":"AFETR","RCS_SIZE":"LARGE","OBJECT_ID":"2020-062BK","INCLINATION":"53.0559","APOAPSIS":"547.984","PERIAPSIS":"546.483","REV_AT_EPOCH":"6197","FILE":"3153808","LAUNCH_DATE":"2020-09-03","OBJECT_NAME":"STARLINK-1769","ECCENTRICITY":"0.00010840","DECAY_DATE":null,"CENTER_NAME":"EARTH","MEAN_ANOMALY":"255.9385","MEAN_MOTION_DDOT":"0.0000000000000","ARG_OF_PERICENTER":"104.1725","TLE_LINE2":"2 46382  53.0559   8.3008 0001084 104.1725 255.9385 15.06393574 61977","NORAD_CAT_ID":"46382","REF_FRAME":"TEME","MEAN_MOTION_DOT":"-0.00001493","CLASSIFICATION_TYPE":"U"},{"FILE":"3153808","PERIAPSIS":"546.193","REV_AT_EPOCH":"6132","ECCENTRICITY":"0.00014770","OBJECT_NAME":"STARLINK-1770","DECAY_DATE":null,"LAUNCH_DATE":"2020-09-03","ARG_OF_PERICENTER":"97.3987","CENTER_NAME":"EARTH","MEAN_ANOMALY":"262.7170","MEAN_MOTION_DDOT":"0.0000000000000","CLASSIFICATION_TYPE":"U","NORAD_CAT_ID":"46383","TLE_LINE2":"2 46383  53.0556  53.6500 0001477  97.3987 262.7170 15.06399206 61329","REF_FRAME":"TEME","MEAN_MOTION_DOT":"-0.00000060","EPOCH":"2021-10-09T13:59:24.004608","TIME_SYSTEM":"UTC","MEAN_MOTION":"15.06399206","PERIOD":"95.592","ELEMENT_SET_NO":"999","EPHEMERIS_TYPE":"0","OBJECT_TYPE":"PAYLOAD","RA_OF_ASC_NODE":"53.6500","SEMIMAJOR_AXIS":"6925.351","BSTAR":"0.00001484300000","TLE_LINE1":"1 46383U 20062BL  21282.58291672 -.00000060  00000-0  14843-4 0  9990","MEAN_ELEMENT_THEORY":"SGP4","COUNTRY_CODE":"US","APOAPSIS":"548.239","GP_ID":"186727941","SITE":"AFETR","RCS_SIZE":"LARGE","INCLINATION":"53.0556","OBJECT_ID":"2020-062BL"},{"CLASSIFICATION_TYPE":"U","TLE_LINE2":"2 46384  53.0545  52.7270 0001573  87.3534 272.7635 15.06382700 61357","NORAD_CAT_ID":"46384","REF_FRAME":"TEME","MEAN_MOTION_DOT":"-0.00000831","ARG_OF_PERICENTER":"87.3534","CENTER_NAME":"EARTH","MEAN_ANOMALY":"272.7635","MEAN_MOTION_DDOT":"0.0000000000000","OBJECT_NAME":"STARLINK-1771","ECCENTRICITY":"0.00015730","DECAY_DATE":null,"LAUNCH_DATE":"2020-09-03","FILE":"3153808","PERIAPSIS":"546.177","REV_AT_EPOCH":"6135","APOAPSIS":"548.356","GP_ID":"186729196","SITE":"AFETR","RCS_SIZE":"LARGE","INCLINATION":"53.0545","OBJECT_ID":"2020-062BM","SEMIMAJOR_AXIS":"6925.402","TLE_LINE1":"1 46384U 20062BM  21282.78564531 -.00000831  00000-0 -36898-4 0  9991","BSTAR":"-0.00003689800000","MEAN_ELEMENT_THEORY":"SGP4","COUNTRY_CODE":"US","ELEMENT_SET_NO":"999","EPHEMERIS_TYPE":"0","OBJECT_TYPE":"PAYLOAD","RA_OF_ASC_NODE":"52.7270","EPOCH":"2021-10-09T18:51:19.754784","TIME_SYSTEM":"UTC","PERIOD":"95.593","MEAN_MOTION":"15.06382700"},{"CLASSIFICATION_TYPE":"U","MEAN_MOTION_DOT":"0.00002761","TLE_LINE2":"2 46532  53.0539 213.9350 0001806  65.6182 294.4995 15.06398680 56530","NORAD_CAT_ID":"46532","REF_FRAME":"TEME","ARG_OF_PERICENTER":"65.6182","MEAN_MOTION_DDOT":"0.0000000000000","MEAN_ANOMALY":"294.4995","CENTER_NAME":"EARTH","DECAY_DATE":null,"OBJECT_NAME":"STARLINK-1644","ECCENTRICITY":"0.00018060","LAUNCH_DATE":"2020-10-06","FILE":"3153259","REV_AT_EPOCH":"5653","PERIAPSIS":"545.967","APOAPSIS":"548.468","SITE":"AFETR","OBJECT_ID":"2020-070A","RCS_SIZE":"LARGE","INCLINATION":"53.0539","GP_ID":"186625729","SEMIMAJOR_AXIS":"6925.353","BSTAR":"0.00020419000000","TLE_LINE1":"1 46532U 20070A   21282.52027251  .00002761  00000-0  20419-3 0  9993","MEAN_ELEMENT_THEORY":"SGP4","COUNTRY_CODE":"US","EPHEMERIS_TYPE":"0","OBJECT_TYPE":"PAYLOAD","ELEMENT_SET_NO":"999","RA_OF_ASC_NODE":"213.9350","TIME_SYSTEM":"UTC","EPOCH":"2021-10-09T12:29:11.544864","PERIOD":"95.592","MEAN_MOTION":"15.06398680"},{"FILE":"3153808","REV_AT_EPOCH":"5651","PERIAPSIS":"546.007","DECAY_DATE":null,"OBJECT_NAME":"STARLINK-1648","ECCENTRICITY":"0.00017770","LAUNCH_DATE":"2020-10-06","ARG_OF_PERICENTER":"65.3074","MEAN_MOTION_DDOT":"0.0000000000000","CENTER_NAME":"EARTH","MEAN_ANOMALY":"294.8100","CLASSIFICATION_TYPE":"U","MEAN_MOTION_DOT":"-0.00001636","NORAD_CAT_ID":"46533","TLE_LINE2":"2 46533  53.0559 213.8977 0001777  65.3074 294.8100 15.06392208 56511","REF_FRAME":"TEME","TIME_SYSTEM":"UTC","EPOCH":"2021-10-09T12:45:05.658336","MEAN_MOTION":"15.06392208","PERIOD":"95.593","EPHEMERIS_TYPE":"0","OBJECT_TYPE":"PAYLOAD","ELEMENT_SET_NO":"999","RA_OF_ASC_NODE":"213.8977","SEMIMAJOR_AXIS":"6925.372","BSTAR":"-0.00009099700000","TLE_LINE1":"1 46533U 20070B   21282.53131549 -.00001636  00000-0 -90997-4 0  9992","MEAN_ELEMENT_THEORY":"SGP4","COUNTRY_CODE":"US","APOAPSIS":"548.468","SITE":"AFETR","INCLINATION":"53.0559","RCS_SIZE":"LARGE","OBJECT_ID":"2020-070B","GP_ID":"186729210"},{"ELEMENT_SET_NO":"999","EPHEMERIS_TYPE":"0","OBJECT_TYPE":"PAYLOAD","RA_OF_ASC_NODE":"213.9678","EPOCH":"2021-10-09T12:18:32.668704","TIME_SYSTEM":"UTC","PERIOD":"95.592","MEAN_MOTION":"15.06401069","APOAPSIS":"548.525","GP_ID":"186728958","SITE":"AFETR","RCS_SIZE":"LARGE","OBJECT_ID":"2020-070C","INCLINATION":"53.0532","SEMIMAJOR_AXIS":"6925.345","TLE_LINE1":"1 46534U 20070C   21282.51287811 -.00001516  00000-0 -82861-4 0  9993","BSTAR":"-0.00008286100000","MEAN_ELEMENT_THEORY":"SGP4","COUNTRY_CODE":"US","OBJECT_NAME":"STARLINK-1659","ECCENTRICITY":"0.00018980","DECAY_DATE":null,"LAUNCH_DATE":"2020-10-06","FILE":"3153808","PERIAPSIS":"545.896","REV_AT_EPOCH":"5651","CLASSIFICATION_TYPE":"U","NORAD_CAT_ID":"46534","TLE_LINE2":"2 46534  53.0532 213.9678 0001898  72.3725 287.7471 15.06401069 56515","REF_FRAME":"TEME","MEAN_MOTION_DOT":"-0.00001516","ARG_OF_PERICENTER":"72.3725","CENTER_NAME":"EARTH","MEAN_ANOMALY":"287.7471","MEAN_MOTION_DDOT":"0.0000000000000"},{"SEMIMAJOR_AXIS":"6925.376","BSTAR":"-0.00036224000000","TLE_LINE1":"1 46535U 20070D   21282.50181799 -.00005672  00000-0 -36224-3 0  9999","MEAN_ELEMENT_THEORY":"SGP4","COUNTRY_CODE":"US","APOAPSIS":"548.403","SITE":"AFETR","OBJECT_ID":"2020-070D","RCS_SIZE":"LARGE","INCLINATION":"53.0540","GP_ID":"186728210","TIME_SYSTEM":"UTC","EPOCH":"2021-10-09T12:02:37.074336","PERIOD":"95.593","MEAN_MOTION":"15.06391082","EPHEMERIS_TYPE":"0","OBJECT_TYPE":"PAYLOAD","ELEMENT_SET_NO":"999","RA_OF_ASC_NODE":"214.0210","ARG_OF_PERICENTER":"74.9568","MEAN_MOTION_DDOT":"0.0000000000000","CENTER_NAME":"EARTH","MEAN_ANOMALY":"285.1607","CLASSIFICATION_TYPE":"U","MEAN_MOTION_DOT":"-0.00005672","TLE_LINE2":"2 46535  53.0540 214.0210 0001678  74.9568 285.1607 15.06391082 56503","NORAD_CAT_ID":"46535","REF_FRAME":"TEME","FILE":"3153808","REV_AT_EPOCH":"5650","PERIAPSIS":"546.079","DECAY_DATE":null,"ECCENTRICITY":"0.00016780","OBJECT_NAME":"STARLINK-1663","LAUNCH_DATE":"2020-10-06"},{"TLE_LINE1":"1 46536U 20070E   21282.76774807  .00015784  00000-0  23099-3 0  9995","BSTAR":"0.00023099000000","SEMIMAJOR_AXIS":"6777.958","COUNTRY_CODE":"US","MEAN_ELEMENT_THEORY":"SGP4","APOAPSIS":"401.049","RCS_SIZE":"LARGE","INCLINATION":"53.0522","OBJECT_ID":"2020-070E","SITE":"AFETR","GP_ID":"186728455","TIME_SYSTEM":"UTC","EPOCH":"2021-10-09T18:25:33.433248","PERIOD":"92.557","MEAN_MOTION":"15.55802508","EPHEMERIS_TYPE":"0","OBJECT_TYPE":"PAYLOAD","ELEMENT_SET_NO":"999","RA_OF_ASC_NODE":"194.8742","ARG_OF_PERICENTER":"314.4686","MEAN_MOTION_DDOT":"0.0000000000000","MEAN_ANOMALY":"45.6176","CENTER_NAME":"EARTH","CLASSIFICATION_TYPE":"U","MEAN_MOTION_DOT":"0.00015784","REF_FRAME":"TEME","NORAD_CAT_ID":"46536","TLE_LINE2":"2 46536  53.0522 194.8742 0001809 314.4686  45.6176 15.55802508 56805","FILE":"3153808","REV_AT_EPOCH":"5680","PERIAPSIS":"398.597","DECAY_DATE":null,"ECCENTRICITY":"0.00018090","OBJECT_NAME":"STARLINK-1668","LAUNCH_DATE":"2020-10-06"}];
